[
    {
        "Altitude(m)": 571727.867032704,
        "Argument of Periapsis(deg)": 0.019868973332140504,
        "Eccentricity": 0.0,
        "Inclination(deg)": 53.0,
        "Latitude(deg)": -52.845420200341195,
        "Longitude(deg)": 69.1055552509991,
        "Mean Anomaly(deg)": -95.17972139726726,
        "RAAN(deg)": 269.97043010558406,
        "Satellite Name": "Starlink Shell 1 1202",
        "Satellite Number": 1202,
        "Semi-Major Axis(m)": 6931778.249405717,
        "Time(s)": 570
    },
    {
        "Altitude(m)": 571754.5844791736,
        "Argument of Periapsis(deg)": 0.02021755181165174,
        "Eccentricity": 0.0,
        "Inclination(deg)": 53.0,
        "Latitude(deg)": -52.91487438031764,
        "Longitude(deg)": 70.09014816067284,
        "Mean Anomaly(deg)": -94.5528901937105,
        "RAAN(deg)": 269.9699113355066,
        "Satellite Name": "Starlink Shell 1 1202",
        "Satellite Number": 1202,
        "Semi-Major Axis(m)": 6931778.249405717,
        "Time(s)": 580
    },
    {
        "Altitude(m)": 571777.8569657455,
        "Argument of Periapsis(deg)": 0.020566130291162974,
        "Eccentricity": 0.0,
        "Inclination(deg)": 53.0,
        "Latitude(deg)": -52.9754471437932,
        "Longitude(deg)": 71.07781286234011,
        "Mean Anomaly(deg)": -93.92605899015376,
        "RAAN(deg)": 269.96939256542913,
        "Satellite Name": "Starlink Shell 1 1202",
        "Satellite Number": 1202,
        "Semi-Major Axis(m)": 6931778.249405717,
        "Time(s)": 590
    },
    {
        "Altitude(m)": 571797.6751828311,
        "Argument of Periapsis(deg)": 0.020914708770674213,
        "Eccentricity": 0.0,
        "Inclination(deg)": 53.0,
        "Latitude(deg)": -53.0270945125115,
        "Longitude(deg)": 72.06814182258378,
        "Mean Anomaly(deg)": -93.2992277865971,
        "RAAN(deg)": 269.9688737953516,
        "Satellite Name": "Starlink Shell 1 1202",
        "Satellite Number": 1202,
        "Semi-Major Axis(m)": 6931778.249405717,
        "Time(s)": 600
    },
    {
        "Altitude(m)": 571814.0311989142,
        "Argument of Periapsis(deg)": 0.021263287250185448,
        "Eccentricity": 0.0,
        "Inclination(deg)": 53.0,
        "Latitude(deg)": -53.06977876197402,
        "Longitude(deg)": 73.06071975602359,
        "Mean Anomaly(deg)": -92.67239658304041,
        "RAAN(deg)": 269.96835502527415,
        "Satellite Name": "Starlink Shell 1 1202",
        "Satellite Number": 1202,
        "Semi-Major Axis(m)": 6931778.249405717,
        "Time(s)": 610
    },
    {
        "Altitude(m)": 571826.9184639617,
        "Argument of Periapsis(deg)": 0.021611865729696686,
        "Eccentricity": 0.0,
        "Inclination(deg)": 53.0,
        "Latitude(deg)": -53.10346855610842,
        "Longitude(deg)": 74.05512528274075,
        "Mean Anomaly(deg)": -92.04556537948358,
        "RAAN(deg)": 269.9678362551967,
        "Satellite Name": "Starlink Shell 1 1202",
        "Satellite Number": 1202,
        "Semi-Major Axis(m)": 6931778.249405717,
        "Time(s)": 620
    },
    {
        "Altitude(m)": 571836.3318122716,
        "Argument of Periapsis(deg)": 0.02196044420920792,
        "Eccentricity": 0.0,
        "Inclination(deg)": 53.0,
        "Latitude(deg)": -53.12813906009865,
        "Longitude(deg)": 75.05093095189498,
        "Mean Anomaly(deg)": -91.41873417592691,
        "RAAN(deg)": 269.9673174851192,
        "Satellite Name": "Starlink Shell 1 1202",
        "Satellite Number": 1202,
        "Semi-Major Axis(m)": 6931778.249405717,
        "Time(s)": 630
    },
    {
        "Altitude(m)": 571842.2674647184,
        "Argument of Periapsis(deg)": 0.02230902268871916,
        "Eccentricity": 0.0,
        "Inclination(deg)": 53.0,
        "Latitude(deg)": -53.14377203042863,
        "Longitude(deg)": 76.04770582576757,
        "Mean Anomaly(deg)": -90.79190297237024,
        "RAAN(deg)": 269.9667987150417,
        "Satellite Name": "Starlink Shell 1 1202",
        "Satellite Number": 1202,
        "Semi-Major Axis(m)": 6931778.249405717,
        "Time(s)": 640
    },
    {
        "Altitude(m)": 571844.7230303686,
        "Argument of Periapsis(deg)": 0.022657601168230398,
        "Eccentricity": 0.0,
        "Inclination(deg)": 53.0,
        "Latitude(deg)": -53.150355881381216,
        "Longitude(deg)": 77.04501557262041,
        "Mean Anomaly(deg)": -90.16507176881352,
        "RAAN(deg)": 269.9662799449643,
        "Satellite Name": "Starlink Shell 1 1202",
        "Satellite Number": 1202,
        "Semi-Major Axis(m)": 6931778.249405717,
        "Time(s)": 650
    },
    {
        "Altitude(m)": 571843.6975075419,
        "Argument of Periapsis(deg)": 0.023006179647741636,
        "Eccentricity": 0.0,
        "Inclination(deg)": 53.0,
        "Latitude(deg)": -53.14788572742304,
        "Longitude(deg)": 78.04242426167383,
        "Mean Anomaly(deg)": -89.53824056525671,
        "RAAN(deg)": 269.96576117488684,
        "Satellite Name": "Starlink Shell 1 1202",
        "Satellite Number": 1202,
        "Semi-Major Axis(m)": 6931778.249405717,
        "Time(s)": 660
    },
    {
        "Altitude(m)": 571839.191284218,
        "Argument of Periapsis(deg)": 0.023354758127252868,
        "Eccentricity": 0.0,
        "Inclination(deg)": 53.0,
        "Latitude(deg)": -53.13636340111322,
        "Longitude(deg)": 79.03949616983286,
        "Mean Anomaly(deg)": -88.91140936170005,
        "RAAN(deg)": 269.9652424048093,
        "Satellite Name": "Starlink Shell 1 1202",
        "Satellite Number": 1202,
        "Semi-Major Axis(m)": 6931778.249405717,
        "Time(s)": 670
    },
    {
        "Altitude(m)": 571831.2061378955,
        "Argument of Periapsis(deg)": 0.023703336606764106,
        "Eccentricity": 0.0,
        "Inclination(deg)": 53.0,
        "Latitude(deg)": -53.115797446382985,
        "Longitude(deg)": 80.03579607772573,
        "Mean Anomaly(deg)": -88.28457815814333,
        "RAAN(deg)": 269.96472363473185,
        "Satellite Name": "Starlink Shell 1 1202",
        "Satellite Number": 1202,
        "Semi-Major Axis(m)": 6931778.249405717,
        "Time(s)": 680
    },
    {
        "Altitude(m)": 571819.7452348259,
        "Argument of Periapsis(deg)": 0.024051915086275345,
        "Eccentricity": 0.0,
        "Inclination(deg)": 53.0,
        "Latitude(deg)": -53.086203087242076,
        "Longitude(deg)": 81.03089107119871,
        "Mean Anomaly(deg)": -87.65774695458666,
        "RAAN(deg)": 269.9642048646544,
        "Satellite Name": "Starlink Shell 1 1202",
        "Satellite Number": 1202,
        "Semi-Major Axis(m)": 6931778.249405717,
        "Time(s)": 690
    },
    {
        "Altitude(m)": 571804.813128625,
        "Argument of Periapsis(deg)": 0.024400493565786583,
        "Eccentricity": 0.0,
        "Inclination(deg)": 53.0,
        "Latitude(deg)": -53.04760217218169,
        "Longitude(deg)": 82.02435232590663,
        "Mean Anomaly(deg)": -87.03091575102988,
        "RAAN(deg)": 269.96368609457693,
        "Satellite Name": "Starlink Shell 1 1202",
        "Satellite Number": 1202,
        "Semi-Major Axis(m)": 6931778.249405717,
        "Time(s)": 700
    },
    {
        "Altitude(m)": 571786.4157583432,
        "Argument of Periapsis(deg)": 0.024749072045297815,
        "Eccentricity": 0.0,
        "Inclination(deg)": 53.0,
        "Latitude(deg)": -53.00002309474919,
        "Longitude(deg)": 83.01575535286197,
        "Mean Anomaly(deg)": -86.40408454747323,
        "RAAN(deg)": 269.96316732449947,
        "Satellite Name": "Starlink Shell 1 1202",
        "Satellite Number": 1202,
        "Semi-Major Axis(m)": 6931778.249405717,
        "Time(s)": 710
    },
    {
        "Altitude(m)": 571764.5604458605,
        "Argument of Periapsis(deg)": 0.025097650524809053,
        "Eccentricity": 0.0,
        "Inclination(deg)": 53.0,
        "Latitude(deg)": -52.9435006909679,
        "Longitude(deg)": 84.00468172178226,
        "Mean Anomaly(deg)": -85.77725334391647,
        "RAAN(deg)": 269.96264855442195,
        "Satellite Name": "Starlink Shell 1 1202",
        "Satellite Number": 1202,
        "Semi-Major Axis(m)": 6931778.249405717,
        "Time(s)": 720
    },
    {
        "Altitude(m)": 571739.2558927636,
        "Argument of Periapsis(deg)": 0.02544622900432029,
        "Eccentricity": 0.0,
        "Inclination(deg)": 53.0,
        "Latitude(deg)": -52.87807611446615,
        "Longitude(deg)": 84.99072074092224,
        "Mean Anomaly(deg)": -85.1504221403598,
        "RAAN(deg)": 269.9621297843445,
        "Satellite Name": "Starlink Shell 1 1202",
        "Satellite Number": 1202,
        "Semi-Major Axis(m)": 6931778.249405717,
        "Time(s)": 730
    },
    {
        "Altitude(m)": 571710.5121765552,
        "Argument of Periapsis(deg)": 0.02579480748383153,
        "Eccentricity": 0.0,
        "Inclination(deg)": 53.0,
        "Latitude(deg)": -52.803796690355185,
        "Longitude(deg)": 85.97346957267247,
        "Mean Anomaly(deg)": -84.52359093680307,
        "RAAN(deg)": 269.961611014267,
        "Satellite Name": "Starlink Shell 1 1202",
        "Satellite Number": 1202,
        "Semi-Major Axis(m)": 6931778.249405717,
        "Time(s)": 740
    },
    {
        "Altitude(m)": 571678.340746318,
        "Argument of Periapsis(deg)": 0.026143385963342765,
        "Eccentricity": 0.0,
        "Inclination(deg)": 53.0,
        "Latitude(deg)": -52.720715749055664,
        "Longitude(deg)": 86.95253480347321,
        "Mean Anomaly(deg)": -83.8967597332464,
        "RAAN(deg)": 269.96109224418956,
        "Satellite Name": "Starlink Shell 1 1202",
        "Satellite Number": 1202,
        "Semi-Major Axis(m)": 6931778.249405717,
        "Time(s)": 750
    }
]